IRIDIUM 36 [-]          
1 24967U 97056C   24067.37150872  .00000848  00000+0  28163-3 0  9999
2 24967  86.4020   9.0126 0002390  85.4129 274.7341 14.36663687385173
IRIDIUM 39 [-]          
1 25042U 97069D   24068.03776048  .00001212  00000+0  32211-3 0  9996
2 25042  86.3894  50.8182 0020476  64.9147 295.4178 14.47734714381748
IRIDIUM 38 [-]          
1 25043U 97069E   24068.03732044  .00000704  00000+0  23044-3 0  9994
2 25043  86.3906  69.1580 0002605 133.6215 226.5199 14.37101333379246
IRIDIUM 42 [-]          
1 25077U 97077A   24068.11026819  .00000697  00000+0  23612-3 0  9997
2 25077  86.3904  74.7317 0002106 106.4186 253.7242 14.35414972374310
IRIDIUM 44 [-]          
1 25078U 97077B   24068.06147473  .00000804  00000+0  25304-3 0  9992
2 25078  86.3918  57.9156 0003976 102.6450 257.5194 14.39237048376667
IRIDIUM 45 [-]          
1 25104U 97082A   24068.06388105  .00012201  00000+0  73596-3 0  9997
2 25104  86.3700 269.6159 0166649 246.3706 111.9956 14.99635283381932
IRIDIUM 24 [-]          
1 25105U 97082B   24068.06573755  .00000608  00000+0  18299-3 0  9992
2 25105  86.3860 277.6983 0011732 166.9302 193.2204 14.41009269376316
IRIDIUM 51 [-]          
1 25262U 98018A   24067.61208838  .00014854  00000+0  75110-3 0  9996
2 25262  86.3893 279.9500 0152290 195.3057 164.3550 15.07262636376094
